ONEWEB-0435             
1 51632U 22012L   26031.13388087  .00000131  00000+0  33966-3 0  9998
2 51632  87.8757  63.5961 0001430  92.1311 267.9980 13.10377132191365
ONEWEB-0436             
1 51633U 22012M   26031.07148514 -.00000056  00000+0 -17683-3 0  9997
2 51633  87.9099  33.0801 0001634  91.7547 268.3772 13.17647568195620
ONEWEB-0438             
1 51634U 22012N   26031.11727007 -.00000751  00000+0 -21879-2 0  9996
2 51634  87.8755  63.6001 0002017  92.2070 267.9288 13.10373276191395
ONEWEB-0439             
1 51635U 22012P   26031.12059170 -.00000607  00000+0 -17760-2 0  9991
2 51635  87.8754  63.5888 0001812  92.6645 267.4690 13.10375006191374
ONEWEB-0442             
1 51636U 22012Q   26031.06390882  .00000016  00000+0  82064-5 0  9997
2 51636  87.9088  33.1245 0002437  85.6311 274.5099 13.17647167195612
ONEWEB-0443             
1 51637U 22012R   26031.23517347  .00000015  00000+0  50476-5 0  9995
2 51637  87.9085  33.0935 0001920  79.1044 281.0304 13.17651348195687
ONEWEB-0444             
1 51638U 22012S   26031.11062959 -.00000674  00000+0 -19681-2 0  9990
2 51638  87.8755  63.5886 0001789  94.4653 265.6678 13.10371118191385
ONEWEB-0445             
1 51639U 22012T   26031.13221850  .00000047  00000+0  99700-4 0  9994
2 51639  87.8775  63.5596 0001902 101.9011 258.2330 13.10379269191394
ONEWEB-0446             
1 51640U 22012U   26031.10896981 -.00000649  00000+0 -18953-2 0  9995
2 51640  87.8753  63.6058 0001916  98.7844 261.3500 13.10370859191376
ONEWEB-0448             
1 51641U 22012V   26031.11394722 -.00000786  00000+0 -22871-2 0  9999
2 51641  87.8752  63.6034 0001767  94.7019 265.4310 13.10372933191340
ONEWEB-0449             
1 51642U 22012W   26031.11893208 -.00000636  00000+0 -18593-2 0  9993
2 51642  87.8762  63.5778 0002191  85.8010 274.3368 13.10374778191352
ONEWEB-0451             
1 51643U 22012X   26030.99217819  .00000033  00000+0  53014-4 0  9995
2 51643  87.9099  33.0911 0001894  86.1975 273.9373 13.17651085195598
ONEWEB-0452             
1 51644U 22012Y   26030.99050579  .00000056  00000+0  11000-3 0  9997
2 51644  87.9089  33.1414 0001875  80.2800 279.8543 13.17649959195601
ONEWEB-0456             
1 51646U 22012AA  26031.12889188 -.00000198  00000+0 -60283-3 0  9997
2 51646  87.8774  63.5506 0001643  96.0207 264.1107 13.10376682191399
ONEWEB-0457             
1 51647U 22012AB  26031.10565543 -.00000503  00000+0 -14788-2 0  9990
2 51647  87.8755  63.5941 0002294  99.1628 260.9759 13.10371123191398
ONEWEB-0458             
1 51648U 22012AC  26031.12723783 -.00000217  00000+0 -65888-3 0  9995
2 51648  87.8764  63.5676 0001853  89.9986 270.1353 13.10376834191351
ONEWEB-0461             
1 51649U 22012AD  26031.24023200 -.00000003  00000+0 -40915-4 0  9994
2 51649  87.9100  33.0564 0001926  92.3571 267.7781 13.17647363195855
