[{"OBJECT_NAME":"ONEWEB-0435","OBJECT_ID":"2022-012L","EPOCH":"2026-01-31T03:12:47.307168","MEAN_MOTION":13.10377132,"ECCENTRICITY":0.00014304,"INCLINATION":87.8757,"RA_OF_ASC_NODE":63.5961,"ARG_OF_PERICENTER":92.1311,"MEAN_ANOMALY":267.998,"EPHEMERIS_TYPE":0,"CLASSIFICATION_TYPE":"U","NORAD_CAT_ID":51632,"ELEMENT_SET_NO":999,"REV_AT_EPOCH":19136,"BSTAR":0.00033965545,"MEAN_MOTION_DOT":1.31e-6,"MEAN_MOTION_DDOT":0},{"OBJECT_NAME":"ONEWEB-0436","OBJECT_ID":"2022-012M","EPOCH":"2026-01-31T01:42:56.316096","MEAN_MOTION":13.17647568,"ECCENTRICITY":0.00016348,"INCLINATION":87.9099,"RA_OF_ASC_NODE":33.0801,"ARG_OF_PERICENTER":91.7547,"MEAN_ANOMALY":268.3772,"EPHEMERIS_TYPE":0,"CLASSIFICATION_TYPE":"U","NORAD_CAT_ID":51633,"ELEMENT_SET_NO":999,"REV_AT_EPOCH":19562,"BSTAR":-0.00017682529,"MEAN_MOTION_DOT":-5.6e-7,"MEAN_MOTION_DDOT":0},{"OBJECT_NAME":"ONEWEB-0438","OBJECT_ID":"2022-012N","EPOCH":"2026-01-31T02:48:52.134048","MEAN_MOTION":13.10373276,"ECCENTRICITY":0.00020175,"INCLINATION":87.8755,"RA_OF_ASC_NODE":63.6001,"ARG_OF_PERICENTER":92.207,"MEAN_ANOMALY":267.9288,"EPHEMERIS_TYPE":0,"CLASSIFICATION_TYPE":"U","NORAD_CAT_ID":51634,"ELEMENT_SET_NO":999,"REV_AT_EPOCH":19139,"BSTAR":-0.0021878617,"MEAN_MOTION_DOT":-7.51e-6,"MEAN_MOTION_DDOT":0},{"OBJECT_NAME":"ONEWEB-0439","OBJECT_ID":"2022-012P","EPOCH":"2026-01-31T02:53:39.122880","MEAN_MOTION":13.10375006,"ECCENTRICITY":0.00018129,"INCLINATION":87.8754,"RA_OF_ASC_NODE":63.5888,"ARG_OF_PERICENTER":92.6645,"MEAN_ANOMALY":267.469,"EPHEMERIS_TYPE":0,"CLASSIFICATION_TYPE":"U","NORAD_CAT_ID":51635,"ELEMENT_SET_NO":999,"REV_AT_EPOCH":19137,"BSTAR":-0.0017760133,"MEAN_MOTION_DOT":-6.07e-6,"MEAN_MOTION_DDOT":0},{"OBJECT_NAME":"ONEWEB-0442","OBJECT_ID":"2022-012Q","EPOCH":"2026-01-31T01:32:01.722048","MEAN_MOTION":13.17647167,"ECCENTRICITY":0.00024377,"INCLINATION":87.9088,"RA_OF_ASC_NODE":33.1245,"ARG_OF_PERICENTER":85.6311,"MEAN_ANOMALY":274.5099,"EPHEMERIS_TYPE":0,"CLASSIFICATION_TYPE":"U","NORAD_CAT_ID":51636,"ELEMENT_SET_NO":999,"REV_AT_EPOCH":19561,"BSTAR":8.206368e-6,"MEAN_MOTION_DOT":1.6e-7,"MEAN_MOTION_DDOT":0},{"OBJECT_NAME":"ONEWEB-0443","OBJECT_ID":"2022-012R","EPOCH":"2026-01-31T05:38:38.987808","MEAN_MOTION":13.17651348,"ECCENTRICITY":0.00019202,"INCLINATION":87.9085,"RA_OF_ASC_NODE":33.0935,"ARG_OF_PERICENTER":79.1044,"MEAN_ANOMALY":281.0304,"EPHEMERIS_TYPE":0,"CLASSIFICATION_TYPE":"U","NORAD_CAT_ID":51637,"ELEMENT_SET_NO":999,"REV_AT_EPOCH":19568,"BSTAR":5.047589e-6,"MEAN_MOTION_DOT":1.5e-7,"MEAN_MOTION_DDOT":0},{"OBJECT_NAME":"ONEWEB-0444","OBJECT_ID":"2022-012S","EPOCH":"2026-01-31T02:39:18.396576","MEAN_MOTION":13.10371118,"ECCENTRICITY":0.00017891,"INCLINATION":87.8755,"RA_OF_ASC_NODE":63.5886,"ARG_OF_PERICENTER":94.4653,"MEAN_ANOMALY":265.6678,"EPHEMERIS_TYPE":0,"CLASSIFICATION_TYPE":"U","NORAD_CAT_ID":51638,"ELEMENT_SET_NO":999,"REV_AT_EPOCH":19138,"BSTAR":-0.0019680851,"MEAN_MOTION_DOT":-6.74e-6,"MEAN_MOTION_DDOT":0},{"OBJECT_NAME":"ONEWEB-0445","OBJECT_ID":"2022-012T","EPOCH":"2026-01-31T03:10:23.678400","MEAN_MOTION":13.10379269,"ECCENTRICITY":0.0001902,"INCLINATION":87.8775,"RA_OF_ASC_NODE":63.5596,"ARG_OF_PERICENTER":101.9011,"MEAN_ANOMALY":258.233,"EPHEMERIS_TYPE":0,"CLASSIFICATION_TYPE":"U","NORAD_CAT_ID":51639,"ELEMENT_SET_NO":999,"REV_AT_EPOCH":19139,"BSTAR":9.97e-5,"MEAN_MOTION_DOT":4.7e-7,"MEAN_MOTION_DDOT":0},{"OBJECT_NAME":"ONEWEB-0446","OBJECT_ID":"2022-012U","EPOCH":"2026-01-31T02:36:54.991584","MEAN_MOTION":13.10370859,"ECCENTRICITY":0.00019166,"INCLINATION":87.8753,"RA_OF_ASC_NODE":63.6058,"ARG_OF_PERICENTER":98.7844,"MEAN_ANOMALY":261.35,"EPHEMERIS_TYPE":0,"CLASSIFICATION_TYPE":"U","NORAD_CAT_ID":51640,"ELEMENT_SET_NO":999,"REV_AT_EPOCH":19137,"BSTAR":-0.001895329,"MEAN_MOTION_DOT":-6.49e-6,"MEAN_MOTION_DDOT":0},{"OBJECT_NAME":"ONEWEB-0448","OBJECT_ID":"2022-012V","EPOCH":"2026-01-31T02:44:05.039808","MEAN_MOTION":13.10372933,"ECCENTRICITY":0.00017679,"INCLINATION":87.8752,"RA_OF_ASC_NODE":63.6034,"ARG_OF_PERICENTER":94.7019,"MEAN_ANOMALY":265.431,"EPHEMERIS_TYPE":0,"CLASSIFICATION_TYPE":"U","NORAD_CAT_ID":51641,"ELEMENT_SET_NO":999,"REV_AT_EPOCH":19134,"BSTAR":-0.0022871123,"MEAN_MOTION_DOT":-7.86e-6,"MEAN_MOTION_DDOT":0},{"OBJECT_NAME":"ONEWEB-0449","OBJECT_ID":"2022-012W","EPOCH":"2026-01-31T02:51:15.731712","MEAN_MOTION":13.10374778,"ECCENTRICITY":0.0002191,"INCLINATION":87.8762,"RA_OF_ASC_NODE":63.5778,"ARG_OF_PERICENTER":85.801,"MEAN_ANOMALY":274.3368,"EPHEMERIS_TYPE":0,"CLASSIFICATION_TYPE":"U","NORAD_CAT_ID":51642,"ELEMENT_SET_NO":999,"REV_AT_EPOCH":19135,"BSTAR":-0.0018592613,"MEAN_MOTION_DOT":-6.36e-6,"MEAN_MOTION_DDOT":0},{"OBJECT_NAME":"ONEWEB-0451","OBJECT_ID":"2022-012X","EPOCH":"2026-01-30T23:48:44.195616","MEAN_MOTION":13.17651085,"ECCENTRICITY":0.00018943,"INCLINATION":87.9099,"RA_OF_ASC_NODE":33.0911,"ARG_OF_PERICENTER":86.1975,"MEAN_ANOMALY":273.9373,"EPHEMERIS_TYPE":0,"CLASSIFICATION_TYPE":"U","NORAD_CAT_ID":51643,"ELEMENT_SET_NO":999,"REV_AT_EPOCH":19559,"BSTAR":5.3014294e-5,"MEAN_MOTION_DOT":3.3e-7,"MEAN_MOTION_DDOT":0},{"OBJECT_NAME":"ONEWEB-0452","OBJECT_ID":"2022-012Y","EPOCH":"2026-01-30T23:46:19.700256","MEAN_MOTION":13.17649959,"ECCENTRICITY":0.00018758,"INCLINATION":87.9089,"RA_OF_ASC_NODE":33.1414,"ARG_OF_PERICENTER":80.28,"MEAN_ANOMALY":279.8543,"EPHEMERIS_TYPE":0,"CLASSIFICATION_TYPE":"U","NORAD_CAT_ID":51644,"ELEMENT_SET_NO":999,"REV_AT_EPOCH":19560,"BSTAR":0.00010999965,"MEAN_MOTION_DOT":5.6e-7,"MEAN_MOTION_DDOT":0},{"OBJECT_NAME":"ONEWEB-0456","OBJECT_ID":"2022-012AA","EPOCH":"2026-01-31T03:05:36.258432","MEAN_MOTION":13.10376682,"ECCENTRICITY":0.0001643,"INCLINATION":87.8774,"RA_OF_ASC_NODE":63.5506,"ARG_OF_PERICENTER":96.0207,"MEAN_ANOMALY":264.1107,"EPHEMERIS_TYPE":0,"CLASSIFICATION_TYPE":"U","NORAD_CAT_ID":51646,"ELEMENT_SET_NO":999,"REV_AT_EPOCH":19139,"BSTAR":-0.00060283232,"MEAN_MOTION_DOT":-1.98e-6,"MEAN_MOTION_DDOT":0},{"OBJECT_NAME":"ONEWEB-0457","OBJECT_ID":"2022-012AB","EPOCH":"2026-01-31T02:32:08.629152","MEAN_MOTION":13.10371123,"ECCENTRICITY":0.00022947,"INCLINATION":87.8755,"RA_OF_ASC_NODE":63.5941,"ARG_OF_PERICENTER":99.1628,"MEAN_ANOMALY":260.9759,"EPHEMERIS_TYPE":0,"CLASSIFICATION_TYPE":"U","NORAD_CAT_ID":51647,"ELEMENT_SET_NO":999,"REV_AT_EPOCH":19139,"BSTAR":-0.0014787701,"MEAN_MOTION_DOT":-5.03e-6,"MEAN_MOTION_DDOT":0},{"OBJECT_NAME":"ONEWEB-0458","OBJECT_ID":"2022-012AC","EPOCH":"2026-01-31T03:03:13.348512","MEAN_MOTION":13.10376834,"ECCENTRICITY":0.00018539,"INCLINATION":87.8764,"RA_OF_ASC_NODE":63.5676,"ARG_OF_PERICENTER":89.9986,"MEAN_ANOMALY":270.1353,"EPHEMERIS_TYPE":0,"CLASSIFICATION_TYPE":"U","NORAD_CAT_ID":51648,"ELEMENT_SET_NO":999,"REV_AT_EPOCH":19135,"BSTAR":-0.00065887512,"MEAN_MOTION_DOT":-2.17e-6,"MEAN_MOTION_DDOT":0},{"OBJECT_NAME":"ONEWEB-0461","OBJECT_ID":"2022-012AD","EPOCH":"2026-01-31T05:45:56.044800","MEAN_MOTION":13.17647363,"ECCENTRICITY":0.00019265,"INCLINATION":87.91,"RA_OF_ASC_NODE":33.0564,"ARG_OF_PERICENTER":92.3571,"MEAN_ANOMALY":267.7781,"EPHEMERIS_TYPE":0,"CLASSIFICATION_TYPE":"U","NORAD_CAT_ID":51649,"ELEMENT_SET_NO":999,"REV_AT_EPOCH":19585,"BSTAR":-4.0915475e-5,"MEAN_MOTION_DOT":-3.0e-8,"MEAN_MOTION_DDOT":0}]
